XRISM                   
1 57800U 23137A   24276.42003225  .00018471  00000+0  13265-2 0  9994
2 57800  31.0039  49.1577 0009068 188.8247 171.2231 15.03140637 58743
